{"type": "FeatureCollection", "features": [ {"type": "Feature", "properties": {"norad_id": 30828, "name": "FENGYUN 1C DEB", "group": "fengyun-1c-debris", "lat": -78.08632556192305, "lon": 139.4746203272111, "alt_km": 679.3229415698643, "timestamp": "2025-12-14T03:55:53.066442+00:00", "meta": {"OBJECT_NAME": "FENGYUN 1C DEB", "OBJECT_ID": "1999-025AVN", "EPOCH": "2025-12-13T01:27:50.227200", "MEAN_MOTION": 14.77006922, "ECCENTRICITY": 0.02090608, "INCLINATION": 98.3751, "RA_OF_ASC_NODE": 94.0413, "ARG_OF_PERICENTER": 177.7116, "MEAN_ANOMALY": 357.9936, "EPHEMERIS_TYPE": 0, "CLASSIFICATION_TYPE": "U", "NORAD_CAT_ID": 30828, "ELEMENT_SET_NO": 999, "REV_AT_EPOCH": 98661, "BSTAR": 0.0024809549, "MEAN_MOTION_DOT": 0.0002516, "MEAN_MOTION_DDOT": 0}, "tle": {"line1": "1 30828U 99025AVN 25347.06099800  .00025160  00000+0  24810-2 0  9999", "line2": "2 30828  98.3751  94.0413 0209060 177.7116 357.9936 14.77006922986614"}}, "geometry": {"type": "Point", "coordinates": [139.4746203272111, -78.08632556192305]}}, {"type": "Feature", "properties": {"norad_id": 30829, "name": "FENGYUN 1C DEB", "group": "fengyun-1c-debris", "lat": -30.95496183761725, "lon": -13.908768886098706, "alt_km": 844.1113314118547, "timestamp": "2025-12-14T03:55:53.066452+00:00", "meta": {"OBJECT_NAME": "FENGYUN 1C DEB", "OBJECT_ID": "1999-025AVP", "EPOCH": "2025-12-09T09:51:51.342624", "MEAN_MOTION": 14.08646778, "ECCENTRICITY": 0.00356313, "INCLINATION": 98.7767, "RA_OF_ASC_NODE": 336.1491, "ARG_OF_PERICENTER": 344.1121, "MEAN_ANOMALY": 15.8928, "EPHEMERIS_TYPE": 0, "CLASSIFICATION_TYPE": "U", "NORAD_CAT_ID": 30829, "ELEMENT_SET_NO": 999, "REV_AT_EPOCH": 96386, "BSTAR": 0.00080547059, "MEAN_MOTION_DOT": 1.351e-05, "MEAN_MOTION_DDOT": 0}, "tle": {"line1": "1 30829U 99025AVP 25343.41101091  .00001351  00000+0  80547-3 0  9997", "line2": "2 30829  98.7767 336.1491 0035631 344.1121  15.8928 14.08646778963865"}}, "geometry": {"type": "Point", "coordinates": [-13.908768886098706, -30.95496183761725]}}, {"type": "Feature", "properties": {"norad_id": 30830, "name": "FENGYUN 1C DEB", "group": "fengyun-1c-debris", "lat": -20.206077969946623, "lon": 153.28548785339788, "alt_km": 835.4770158889278, "timestamp": "2025-12-14T03:55:53.066462+00:00", "meta": {"OBJECT_NAME": "FENGYUN 1C DEB", "OBJECT_ID": "1999-025AVQ", "EPOCH": "2025-12-12T22:13:05.137824", "MEAN_MOTION": 14.12229745, "ECCENTRICITY": 0.0030708, "INCLINATION": 98.7295, "RA_OF_ASC_NODE": 335.3217, "ARG_OF_PERICENTER": 188.2643, "MEAN_ANOMALY": 201.1922, "EPHEMERIS_TYPE": 0, "CLASSIFICATION_TYPE": "U", "NORAD_CAT_ID": 30830, "ELEMENT_SET_NO": 999, "REV_AT_EPOCH": 96602, "BSTAR": 0.0003906722, "MEAN_MOTION_DOT": 6.78e-06, "MEAN_MOTION_DDOT": 0}, "tle": {"line1": "1 30830U 99025AVQ 25346.92575391  .00000678  00000+0  39067-3 0  9998", "line2": "2 30830  98.7295 335.3217 0030708 188.2643 201.1922 14.12229745966027"}}, "geometry": {"type": "Point", "coordinates": [153.28548785339788, -20.206077969946623]}}, {"type": "Feature", "properties": {"norad_id": 30831, "name": "FENGYUN 1C DEB", "group": "fengyun-1c-debris", "lat": 38.95280869045748, "lon": -31.334087276245047, "alt_km": 798.675197779934, "timestamp": "2025-12-14T03:55:53.066473+00:00", "meta": {"OBJECT_NAME": "FENGYUN 1C DEB", "OBJECT_ID": "1999-025AVR", "EPOCH": "2025-12-13T03:47:25.783584", "MEAN_MOTION": 14.31088633, "ECCENTRICITY": 0.00555105, "INCLINATION": 99.3282, "RA_OF_ASC_NODE": 139.951, "ARG_OF_PERICENTER": 32.948, "MEAN_ANOMALY": 327.514, "EPHEMERIS_TYPE": 0, "CLASSIFICATION_TYPE": "U", "NORAD_CAT_ID": 30831, "ELEMENT_SET_NO": 999, "REV_AT_EPOCH": 65256, "BSTAR": 0.00059988315, "MEAN_MOTION_DOT": 1.558e-05, "MEAN_MOTION_DDOT": 0}, "tle": {"line1": "1 30831U 99025AVR 25347.15793731  .00001558  00000+0  59988-3 0  9997", "line2": "2 30831  99.3282 139.9510 0055510  32.9480 327.5140 14.31088633652563"}}, "geometry": {"type": "Point", "coordinates": [-31.334087276245047, 38.95280869045748]}}, {"type": "Feature", "properties": {"norad_id": 30833, "name": "FENGYUN 1C DEB", "group": "fengyun-1c-debris", "lat": 42.35288803773822, "lon": -36.471049461136474, "alt_km": 780.7748785024933, "timestamp": "2025-12-14T03:55:53.066483+00:00", "meta": {"OBJECT_NAME": "FENGYUN 1C DEB", "OBJECT_ID": "1999-025AVT", "EPOCH": "2025-12-13T03:43:43.154976", "MEAN_MOTION": 14.26759277, "ECCENTRICITY": 0.00330206, "INCLINATION": 99.8438, "RA_OF_ASC_NODE": 133.2888, "ARG_OF_PERICENTER": 179.4189, "MEAN_ANOMALY": 180.7031, "EPHEMERIS_TYPE": 0, "CLASSIFICATION_TYPE": "U", "NORAD_CAT_ID": 30833, "ELEMENT_SET_NO": 999, "REV_AT_EPOCH": 64417, "BSTAR": 0.0009108957, "MEAN_MOTION_DOT": 2.165e-05, "MEAN_MOTION_DDOT": 0}, "tle": {"line1": "1 30833U 99025AVT 25347.15536059  .00002165  00000+0  91090-3 0  9992", "line2": "2 30833  99.8438 133.2888 0033020 179.4189 180.7031 14.26759277644172"}}, "geometry": {"type": "Point", "coordinates": [-36.471049461136474, 42.35288803773822]}}, {"type": "Feature", "properties": {"norad_id": 30836, "name": "FENGYUN 1C DEB", "group": "fengyun-1c-debris", "lat": -30.67528319799028, "lon": -164.44787302189437, "alt_km": 842.5425438875945, "timestamp": "2025-12-14T03:55:53.066493+00:00", "meta": {"OBJECT_NAME": "FENGYUN 1C DEB", "OBJECT_ID": "1999-025AVW", "EPOCH": "2025-12-11T22:12:36.706176", "MEAN_MOTION": 14.11932534, "ECCENTRICITY": 0.0025667, "INCLINATION": 98.7452, "RA_OF_ASC_NODE": 18.6084, "ARG_OF_PERICENTER": 247.0084, "MEAN_ANOMALY": 112.838, "EPHEMERIS_TYPE": 0, "CLASSIFICATION_TYPE": "U", "NORAD_CAT_ID": 30836, "ELEMENT_SET_NO": 999, "REV_AT_EPOCH": 61992, "BSTAR": 0.00050218, "MEAN_MOTION_DOT": 8.78e-06, "MEAN_MOTION_DDOT": 0}, "tle": {"line1": "1 30836U 99025AVW 25345.92542484  .00000878  00000+0  50218-3 0  9993", "line2": "2 30836  98.7452  18.6084 0025667 247.0084 112.8380 14.11932534619928"}}, "geometry": {"type": "Point", "coordinates": [-164.44787302189437, -30.67528319799028]}}, {"type": "Feature", "properties": {"norad_id": 30837, "name": "FENGYUN 1C DEB", "group": "fengyun-1c-debris", "lat": -81.04447213807389, "lon": 78.61094694288268, "alt_km": 869.0507481412469, "timestamp": "2025-12-14T03:55:53.066517+00:00", "meta": {"OBJECT_NAME": "FENGYUN 1C DEB", "OBJECT_ID": "1999-025AVX", "EPOCH": "2025-12-13T04:53:37.269312", "MEAN_MOTION": 14.1452246, "ECCENTRICITY": 0.00329745, "INCLINATION": 98.6788, "RA_OF_ASC_NODE": 333.4275, "ARG_OF_PERICENTER": 132.0978, "MEAN_ANOMALY": 290.0836, "EPHEMERIS_TYPE": 0, "CLASSIFICATION_TYPE": "U", "NORAD_CAT_ID": 30837, "ELEMENT_SET_NO": 999, "REV_AT_EPOCH": 96825, "BSTAR": 0.00045813382, "MEAN_MOTION_DOT": 8.41e-06, "MEAN_MOTION_DDOT": 0}, "tle": {"line1": "1 30837U 99025AVX 25347.20390358  .00000841  00000+0  45813-3 0  9993", "line2": "2 30837  98.6788 333.4275 0032974 132.0978 290.0836 14.14522460968258"}}, "geometry": {"type": "Point", "coordinates": [78.61094694288268, -81.04447213807389]}}, {"type": "Feature", "properties": {"norad_id": 30838, "name": "FENGYUN 1C DEB", "group": "fengyun-1c-debris", "lat": 78.7390283591094, "lon": -150.97568400079552, "alt_km": 717.4431446016952, "timestamp": "2025-12-14T03:55:53.066528+00:00", "meta": {"OBJECT_NAME": "FENGYUN 1C DEB", "OBJECT_ID": "1999-025AVY", "EPOCH": "2025-12-13T01:00:30.218688", "MEAN_MOTION": 14.47748372, "ECCENTRICITY": 0.00340353, "INCLINATION": 99.0421, "RA_OF_ASC_NODE": 260.9331, "ARG_OF_PERICENTER": 157.252, "MEAN_ANOMALY": 203.0188, "EPHEMERIS_TYPE": 0, "CLASSIFICATION_TYPE": "U", "NORAD_CAT_ID": 30838, "ELEMENT_SET_NO": 999, "REV_AT_EPOCH": 97318, "BSTAR": 0.003660788, "MEAN_MOTION_DOT": 0.00013598, "MEAN_MOTION_DDOT": 0}, "tle": {"line1": "1 30838U 99025AVY 25347.04201642  .00013598  00000+0  36608-2 0  9997", "line2": "2 30838  99.0421 260.9331 0034035 157.2520 203.0188 14.47748372973187"}}, "geometry": {"type": "Point", "coordinates": [-150.97568400079552, 78.7390283591094]}}, {"type": "Feature", "properties": {"norad_id": 30840, "name": "FENGYUN 1C DEB", "group": "fengyun-1c-debris", "lat": -80.84340326434179, "lon": 60.52997747559487, "alt_km": 698.1504244250436, "timestamp": "2025-12-14T03:55:53.066538+00:00", "meta": {"OBJECT_NAME": "FENGYUN 1C DEB", "OBJECT_ID": "1999-025AWA", "EPOCH": "2025-12-13T00:22:21.414432", "MEAN_MOTION": 14.61109182, "ECCENTRICITY": 0.02177234, "INCLINATION": 98.024, "RA_OF_ASC_NODE": 358.3542, "ARG_OF_PERICENTER": 9.7486, "MEAN_ANOMALY": 350.7837, "EPHEMERIS_TYPE": 0, "CLASSIFICATION_TYPE": "U", "NORAD_CAT_ID": 30840, "ELEMENT_SET_NO": 999, "REV_AT_EPOCH": 73135, "BSTAR": 0.0010796516, "MEAN_MOTION_DOT": 7.389e-05, "MEAN_MOTION_DDOT": 0}, "tle": {"line1": "1 30840U 99025AWA 25347.01552563  .00007389  00000+0  10797-2 0  9990", "line2": "2 30840  98.0240 358.3542 0217723   9.7486 350.7837 14.61109182731351"}}, "geometry": {"type": "Point", "coordinates": [60.52997747559487, -80.84340326434179]}}, {"type": "Feature", "properties": {"norad_id": 30843, "name": "FENGYUN 1C DEB", "group": "fengyun-1c-debris", "lat": 57.427650299389235, "lon": 45.76219373822413, "alt_km": 652.950130794633, "timestamp": "2025-12-14T03:55:53.066549+00:00", "meta": {"OBJECT_NAME": "FENGYUN 1C DEB", "OBJECT_ID": "1999-025AWD", "EPOCH": "2025-12-12T21:54:13.697856", "MEAN_MOTION": 14.52476426, "ECCENTRICITY": 0.01488958, "INCLINATION": 98.8425, "RA_OF_ASC_NODE": 58.5476, "ARG_OF_PERICENTER": 119.0949, "MEAN_ANOMALY": 242.5248, "EPHEMERIS_TYPE": 0, "CLASSIFICATION_TYPE": "U", "NORAD_CAT_ID": 30843, "ELEMENT_SET_NO": 999, "REV_AT_EPOCH": 99327, "BSTAR": 0.00028641796, "MEAN_MOTION_DOT": 1.295e-05, "MEAN_MOTION_DDOT": 0}, "tle": {"line1": "1 30843U 99025AWD 25346.91265854  .00001295  00000+0  28642-3 0  9994", "line2": "2 30843  98.8425  58.5476 0148895 119.0949 242.5248 14.52476426993277"}}, "geometry": {"type": "Point", "coordinates": [45.76219373822413, 57.427650299389235]}}]}